[{"OBJECT_NAME":"STARLINK-4371","OBJECT_ID":"2022-084AV","EPOCH":"2026-03-09T17:16:44.392800","MEAN_MOTION":15.01261397,"ECCENTRICITY":0.00010798,"INCLINATION":97.6057,"RA_OF_ASC_NODE":130.2389,"ARG_OF_PERICENTER":135.5266,"MEAN_ANOMALY":224.6046,"EPHEMERIS_TYPE":0,"CLASSIFICATION_TYPE":"U","NORAD_CAT_ID":53232,"ELEMENT_SET_NO":999,"REV_AT_EPOCH":19932,"BSTAR":8.710399e-5,"MEAN_MOTION_DOT":1.061e-5,"MEAN_MOTION_DDOT":0},{"OBJECT_NAME":"FENGYUN 1C DEB","OBJECT_ID":"1999-025ATE","EPOCH":"2026-03-09T09:33:08.339616","MEAN_MOTION":15.01474525,"ECCENTRICITY":0.00075584,"INCLINATION":98.7312,"RA_OF_ASC_NODE":229.2263,"ARG_OF_PERICENTER":329.2571,"MEAN_ANOMALY":91.5818,"EPHEMERIS_TYPE":0,"CLASSIFICATION_TYPE":"U","NORAD_CAT_ID":30744,"ELEMENT_SET_NO":999,"REV_AT_EPOCH":99383,"BSTAR":0.0056947952,"MEAN_MOTION_DOT":0.0007432,"MEAN_MOTION_DDOT":0}]
